[
    {
        "Altitude(m)": 711616.0822534813,
        "Argument of Periapsis(deg)": 0.011390121186627068,
        "Eccentricity": 0.0,
        "Inclination(deg)": 45.0,
        "Latitude(deg)": -29.75345240107944,
        "Longitude(deg)": -176.1241560103414,
        "Mean Anomaly(deg)": 224.2605166474808,
        "RAAN(deg)": 69.98924805854179,
        "Satellite Name": "Constellation 1 321",
        "Satellite Number": 321,
        "Semi-Major Axis(m)": 7083131.272910544,
        "Time(s)": 190
    },
    {
        "Altitude(m)": 711629.7807139527,
        "Argument of Periapsis(deg)": 0.011450069192872472,
        "Eccentricity": 0.0,
        "Inclination(deg)": 45.0,
        "Latitude(deg)": -29.788844888443908,
        "Longitude(deg)": -176.0715764008067,
        "Mean Anomaly(deg)": 224.32121778773072,
        "RAAN(deg)": 69.98919146937622,
        "Satellite Name": "Constellation 1 321",
        "Satellite Number": 321,
        "Semi-Major Axis(m)": 7083131.272910544,
        "Time(s)": 191
    },
    {
        "Altitude(m)": 711643.4753800088,
        "Argument of Periapsis(deg)": 0.01151001719911788,
        "Eccentricity": 0.0,
        "Inclination(deg)": 45.0,
        "Latitude(deg)": -29.824212793335157,
        "Longitude(deg)": -176.0189570527249,
        "Mean Anomaly(deg)": 224.38191892798056,
        "RAAN(deg)": 69.98913488021066,
        "Satellite Name": "Constellation 1 321",
        "Satellite Number": 321,
        "Semi-Major Axis(m)": 7083131.272910544,
        "Time(s)": 192
    },
    {
        "Altitude(m)": 711657.1662036488,
        "Argument of Periapsis(deg)": 0.011569965205363285,
        "Eccentricity": 0.0,
        "Inclination(deg)": 45.0,
        "Latitude(deg)": -29.859556064324593,
        "Longitude(deg)": -175.96629807675282,
        "Mean Anomaly(deg)": 224.44262006823058,
        "RAAN(deg)": 69.98907829104509,
        "Satellite Name": "Constellation 1 321",
        "Satellite Number": 321,
        "Semi-Major Axis(m)": 7083131.272910544,
        "Time(s)": 193
    },
    {
        "Altitude(m)": 711670.8531368658,
        "Argument of Periapsis(deg)": 0.01162991321160869,
        "Eccentricity": 0.0,
        "Inclination(deg)": 45.0,
        "Latitude(deg)": -29.894874649912815,
        "Longitude(deg)": -175.91359907931138,
        "Mean Anomaly(deg)": 224.50332120848043,
        "RAAN(deg)": 69.98902170187951,
        "Satellite Name": "Constellation 1 321",
        "Satellite Number": 321,
        "Semi-Major Axis(m)": 7083131.272910544,
        "Time(s)": 194
    },
    {
        "Altitude(m)": 711684.5361316616,
        "Argument of Periapsis(deg)": 0.011689861217854095,
        "Eccentricity": 0.0,
        "Inclination(deg)": 45.0,
        "Latitude(deg)": -29.930168498528307,
        "Longitude(deg)": -175.8608601711676,
        "Mean Anomaly(deg)": 224.56402234873033,
        "RAAN(deg)": 69.98896511271396,
        "Satellite Name": "Constellation 1 321",
        "Satellite Number": 321,
        "Semi-Major Axis(m)": 7083131.272910544,
        "Time(s)": 195
    },
    {
        "Altitude(m)": 711698.2151400503,
        "Argument of Periapsis(deg)": 0.0117498092240995,
        "Eccentricity": 0.0,
        "Inclination(deg)": 45.0,
        "Latitude(deg)": -29.965437558528162,
        "Longitude(deg)": -175.80808129504783,
        "Mean Anomaly(deg)": 224.6247234889802,
        "RAAN(deg)": 69.98890852354837,
        "Satellite Name": "Constellation 1 321",
        "Satellite Number": 321,
        "Semi-Major Axis(m)": 7083131.272910544,
        "Time(s)": 196
    },
    {
        "Altitude(m)": 711711.8901140395,
        "Argument of Periapsis(deg)": 0.011809757230344905,
        "Eccentricity": 0.0,
        "Inclination(deg)": 45.0,
        "Latitude(deg)": -30.000681778197904,
        "Longitude(deg)": -175.7552623937351,
        "Mean Anomaly(deg)": 224.6854246292301,
        "RAAN(deg)": 69.98885193438281,
        "Satellite Name": "Constellation 1 321",
        "Satellite Number": 321,
        "Semi-Major Axis(m)": 7083131.272910544,
        "Time(s)": 197
    },
    {
        "Altitude(m)": 711725.5610056488,
        "Argument of Periapsis(deg)": 0.011869705236590313,
        "Eccentricity": 0.0,
        "Inclination(deg)": 45.0,
        "Latitude(deg)": -30.035901105751456,
        "Longitude(deg)": -175.70240341007002,
        "Mean Anomaly(deg)": 224.74612576948005,
        "RAAN(deg)": 69.98879534521723,
        "Satellite Name": "Constellation 1 321",
        "Satellite Number": 321,
        "Semi-Major Axis(m)": 7083131.272910544,
        "Time(s)": 198
    },
    {
        "Altitude(m)": 711739.227766899,
        "Argument of Periapsis(deg)": 0.011929653242835719,
        "Eccentricity": 0.0,
        "Inclination(deg)": 45.0,
        "Latitude(deg)": -30.071095489331032,
        "Longitude(deg)": -175.64950428695127,
        "Mean Anomaly(deg)": 224.8068269097299,
        "RAAN(deg)": 69.98873875605167,
        "Satellite Name": "Constellation 1 321",
        "Satellite Number": 321,
        "Semi-Major Axis(m)": 7083131.272910544,
        "Time(s)": 199
    }
]